[
    {
        "Altitude(m)": 715016.7790968402,
        "Argument of Periapsis(deg)": 0.011390121186627068,
        "Eccentricity": 0.0,
        "Inclination(deg)": 45.0,
        "Latitude(deg)": -38.216213072069344,
        "Longitude(deg)": -69.22366905463183,
        "Mean Anomaly(deg)": -119.37588335251918,
        "RAAN(deg)": 159.98924805854182,
        "Satellite Name": "Constellation 1 718",
        "Satellite Number": 718,
        "Semi-Major Axis(m)": 7083131.272910544,
        "Time(s)": 190
    },
    {
        "Altitude(m)": 715027.7771648793,
        "Argument of Periapsis(deg)": 0.011450069192872472,
        "Eccentricity": 0.0,
        "Inclination(deg)": 45.0,
        "Latitude(deg)": -38.242902204052626,
        "Longitude(deg)": -69.15866845027742,
        "Mean Anomaly(deg)": -119.31518221226928,
        "RAAN(deg)": 159.9891914693762,
        "Satellite Name": "Constellation 1 718",
        "Satellite Number": 718,
        "Semi-Major Axis(m)": 7083131.272910544,
        "Time(s)": 191
    },
    {
        "Altitude(m)": 715038.7592938918,
        "Argument of Periapsis(deg)": 0.01151001719911788,
        "Eccentricity": 0.0,
        "Inclination(deg)": 45.0,
        "Latitude(deg)": -38.26955046211269,
        "Longitude(deg)": -69.09361747532778,
        "Mean Anomaly(deg)": -119.2544810720193,
        "RAAN(deg)": 159.98913488021066,
        "Satellite Name": "Constellation 1 718",
        "Satellite Number": 718,
        "Semi-Major Axis(m)": 7083131.272910544,
        "Time(s)": 192
    },
    {
        "Altitude(m)": 715049.7254439937,
        "Argument of Periapsis(deg)": 0.011569965205363285,
        "Eccentricity": 0.0,
        "Inclination(deg)": 45.0,
        "Latitude(deg)": -38.29615777842518,
        "Longitude(deg)": -69.02851629004219,
        "Mean Anomaly(deg)": -119.19377993176947,
        "RAAN(deg)": 159.98907829104508,
        "Satellite Name": "Constellation 1 718",
        "Satellite Number": 718,
        "Semi-Major Axis(m)": 7083131.272910544,
        "Time(s)": 193
    },
    {
        "Altitude(m)": 715060.6755753584,
        "Argument of Periapsis(deg)": 0.01162991321160869,
        "Eccentricity": 0.0,
        "Inclination(deg)": 45.0,
        "Latitude(deg)": -38.32272408513693,
        "Longitude(deg)": -68.96336455074002,
        "Mean Anomaly(deg)": -119.13307879151954,
        "RAAN(deg)": 159.98902170187952,
        "Satellite Name": "Constellation 1 718",
        "Satellite Number": 718,
        "Semi-Major Axis(m)": 7083131.272910544,
        "Time(s)": 194
    },
    {
        "Altitude(m)": 715071.609648224,
        "Argument of Periapsis(deg)": 0.011689861217854095,
        "Eccentricity": 0.0,
        "Inclination(deg)": 45.0,
        "Latitude(deg)": -38.34924931436626,
        "Longitude(deg)": -68.89816241838712,
        "Mean Anomaly(deg)": -119.07237765126965,
        "RAAN(deg)": 159.98896511271397,
        "Satellite Name": "Constellation 1 718",
        "Satellite Number": 718,
        "Semi-Major Axis(m)": 7083131.272910544,
        "Time(s)": 195
    },
    {
        "Altitude(m)": 715082.5276228662,
        "Argument of Periapsis(deg)": 0.0117498092240995,
        "Eccentricity": 0.0,
        "Inclination(deg)": 45.0,
        "Latitude(deg)": -38.37573339820351,
        "Longitude(deg)": -68.83290988620722,
        "Mean Anomaly(deg)": -119.01167651101976,
        "RAAN(deg)": 159.98890852354836,
        "Satellite Name": "Constellation 1 718",
        "Satellite Number": 718,
        "Semi-Major Axis(m)": 7083131.272910544,
        "Time(s)": 196
    },
    {
        "Altitude(m)": 715093.4294596316,
        "Argument of Periapsis(deg)": 0.011809757230344905,
        "Eccentricity": 0.0,
        "Inclination(deg)": 45.0,
        "Latitude(deg)": -38.402176268711486,
        "Longitude(deg)": -68.76760694778116,
        "Mean Anomaly(deg)": -118.95097537076992,
        "RAAN(deg)": 159.9888519343828,
        "Satellite Name": "Constellation 1 718",
        "Satellite Number": 718,
        "Semi-Major Axis(m)": 7083131.272910544,
        "Time(s)": 197
    },
    {
        "Altitude(m)": 715104.3151189202,
        "Argument of Periapsis(deg)": 0.011869705236590313,
        "Eccentricity": 0.0,
        "Inclination(deg)": 45.0,
        "Latitude(deg)": -38.42857785792586,
        "Longitude(deg)": -68.70225359704797,
        "Mean Anomaly(deg)": -118.89027423051996,
        "RAAN(deg)": 159.98879534521723,
        "Satellite Name": "Constellation 1 718",
        "Satellite Number": 718,
        "Semi-Major Axis(m)": 7083131.272910544,
        "Time(s)": 198
    },
    {
        "Altitude(m)": 715115.184561173,
        "Argument of Periapsis(deg)": 0.011929653242835719,
        "Eccentricity": 0.0,
        "Inclination(deg)": 45.0,
        "Latitude(deg)": -38.45493809785557,
        "Longitude(deg)": -68.63684982830671,
        "Mean Anomaly(deg)": -118.82957309027006,
        "RAAN(deg)": 159.98873875605167,
        "Satellite Name": "Constellation 1 718",
        "Satellite Number": 718,
        "Semi-Major Axis(m)": 7083131.272910544,
        "Time(s)": 199
    }
]